TRANSPORTER-12 OBJECT AZ
1 62656U 25009AZ  26068.71026235  .00016057  00000+0  54903-3 0  9991
2 62656  97.3981 151.9913 0000987  45.3581 314.7740 15.30349724 63792
STARLINK-32872          
1 63019U 25032Q   26068.08694343  .00036976  00000+0  13464-2 0  9990
2 63019  43.0033 339.8177 0001852 257.3444 102.7200 15.27581564 60526
